{"type": "FeatureCollection", "features": [{"type": "Feature", "properties": {"norad_id": 2807, "name": "OPS 7218 (TRANSIT 16)", "group": "nnss", "lat": 68.03418152854849, "lon": 172.89243268121365, "alt_km": 1047.879125340336, "timestamp": "2025-12-22T04:03:39.437588+00:00", "meta": {"OBJECT_NAME": "OPS 7218 (TRANSIT 16)", "OBJECT_ID": "1967-048A", "EPOCH": "2025-12-21T17:41:39.509376", "MEAN_MOTION": 13.50724099, "ECCENTRICITY": 0.0022162, "INCLINATION": 89.6731, "RA_OF_ASC_NODE": 353.7177, "ARG_OF_PERICENTER": 90.0973, "MEAN_ANOMALY": 82.6056, "EPHEMERIS_TYPE": 0, "CLASSIFICATION_TYPE": "U", "NORAD_CAT_ID": 2807, "ELEMENT_SET_NO": 999, "REV_AT_EPOCH": 88397, "BSTAR": 0.0001479, "MEAN_MOTION_DOT": 1.06e-06, "MEAN_MOTION_DDOT": 0}, "tle": {"line1": "1 02807U 67048A   25355.73726284  .00000106  00000+0  14790-3 0  9991", "line2": "2 02807  89.6731 353.7177 0022162  90.0973  82.6056 13.50724099883979"}}, "geometry": {"type": "Point", "coordinates": [172.89243268121365, 68.03418152854849]}}, {"type": "Feature", "properties": {"norad_id": 2965, "name": "OPS 4947 (TRANSIT 17)", "group": "nnss", "lat": -89.04069852667341, "lon": -104.69112234715705, "alt_km": 1051.0674714874058, "timestamp": "2025-12-22T04:03:39.437610+00:00", "meta": {"OBJECT_NAME": "OPS 4947 (TRANSIT 17)", "OBJECT_ID": "1967-092A", "EPOCH": "2025-12-21T14:52:15.199104", "MEAN_MOTION": 13.53455839, "ECCENTRICITY": 0.0046816, "INCLINATION": 89.2487, "RA_OF_ASC_NODE": 23.7581, "ARG_OF_PERICENTER": 208.0887, "MEAN_ANOMALY": 264.608, "EPHEMERIS_TYPE": 0, "CLASSIFICATION_TYPE": "U", "NORAD_CAT_ID": 2965, "ELEMENT_SET_NO": 999, "REV_AT_EPOCH": 87217, "BSTAR": 0.00019342, "MEAN_MOTION_DOT": 1.42e-06, "MEAN_MOTION_DDOT": 0}, "tle": {"line1": "1 02965U 67092A   25355.61962036  .00000142  00000+0  19342-3 0  9997", "line2": "2 02965  89.2487  23.7581 0046816 208.0887 264.6080 13.53455839872173"}}, "geometry": {"type": "Point", "coordinates": [-104.69112234715705, -89.04069852667341]}}, {"type": "Feature", "properties": {"norad_id": 3133, "name": "OPS 7034 (TRANSIT 18)", "group": "nnss", "lat": -6.478041611920713, "lon": -86.33103525725086, "alt_km": 1117.493714206441, "timestamp": "2025-12-22T04:03:39.437623+00:00", "meta": {"OBJECT_NAME": "OPS 7034 (TRANSIT 18)", "OBJECT_ID": "1968-012A", "EPOCH": "2025-12-21T17:42:37.304928", "MEAN_MOTION": 13.51567731, "ECCENTRICITY": 0.0074707, "INCLINATION": 90.0284, "RA_OF_ASC_NODE": 273.6645, "ARG_OF_PERICENTER": 143.2292, "MEAN_ANOMALY": 273.6806, "EPHEMERIS_TYPE": 0, "CLASSIFICATION_TYPE": "U", "NORAD_CAT_ID": 3133, "ELEMENT_SET_NO": 999, "REV_AT_EPOCH": 57040, "BSTAR": 0.00019021, "MEAN_MOTION_DOT": 1.36e-06, "MEAN_MOTION_DDOT": 0}, "tle": {"line1": "1 03133U 68012A   25355.73793177  .00000136  00000+0  19021-3 0  9996", "line2": "2 03133  90.0284 273.6645 0074707 143.2292 273.6806 13.51567731570403"}}, "geometry": {"type": "Point", "coordinates": [-86.33103525725086, -6.478041611920713]}}, {"type": "Feature", "properties": {"norad_id": 4507, "name": "NNSS 19 (TRANSIT 19)", "group": "nnss", "lat": -41.50969017972427, "lon": -125.455251952238, "alt_km": 996.0167772525647, "timestamp": "2025-12-22T04:03:39.437635+00:00", "meta": {"OBJECT_NAME": "NNSS 19 (TRANSIT 19)", "OBJECT_ID": "1970-067A", "EPOCH": "2025-12-21T17:36:04.817376", "MEAN_MOTION": 13.51316852, "ECCENTRICITY": 0.0170227, "INCLINATION": 90.005, "RA_OF_ASC_NODE": 234.5401, "ARG_OF_PERICENTER": 267.0576, "MEAN_ANOMALY": 91.1084, "EPHEMERIS_TYPE": 0, "CLASSIFICATION_TYPE": "U", "NORAD_CAT_ID": 4507, "ELEMENT_SET_NO": 999, "REV_AT_EPOCH": 72343, "BSTAR": 0.00014461, "MEAN_MOTION_DOT": 1.1e-06, "MEAN_MOTION_DDOT": 0}, "tle": {"line1": "1 04507U 70067A   25355.73338909  .00000110  00000+0  14461-3 0  9998", "line2": "2 04507  90.0050 234.5401 0170227 267.0576  91.1084 13.51316852723430"}}, "geometry": {"type": "Point", "coordinates": [-125.455251952238, -41.50969017972427]}}, {"type": "Feature", "properties": {"norad_id": 6909, "name": "NNSS 20 (TRANSIT 20)", "group": "nnss", "lat": -9.902798385832908, "lon": -105.11217817182896, "alt_km": 939.8754652691287, "timestamp": "2025-12-22T04:03:39.437646+00:00", "meta": {"OBJECT_NAME": "NNSS 20 (TRANSIT 20)", "OBJECT_ID": "1973-081A", "EPOCH": "2025-12-21T19:21:11.189664", "MEAN_MOTION": 13.71438822, "ECCENTRICITY": 0.0156347, "INCLINATION": 89.8562, "RA_OF_ASC_NODE": 254.9184, "ARG_OF_PERICENTER": 51.459, "MEAN_ANOMALY": 310.0467, "EPHEMERIS_TYPE": 0, "CLASSIFICATION_TYPE": "U", "NORAD_CAT_ID": 6909, "ELEMENT_SET_NO": 999, "REV_AT_EPOCH": 80485, "BSTAR": 0.00025747, "MEAN_MOTION_DOT": 2.64e-06, "MEAN_MOTION_DDOT": 0}, "tle": {"line1": "1 06909U 73081A   25355.80637951  .00000264  00000+0  25747-3 0  9991", "line2": "2 06909  89.8562 254.9184 0156347  51.4590 310.0467 13.71438822804852"}}, "geometry": {"type": "Point", "coordinates": [-105.11217817182896, -9.902798385832908]}}, {"type": "Feature", "properties": {"norad_id": 10457, "name": "TRANSAT", "group": "nnss", "lat": -61.99992878312275, "lon": -101.07409027314624, "alt_km": 1079.747706856866, "timestamp": "2025-12-22T04:03:39.437656+00:00", "meta": {"OBJECT_NAME": "TRANSAT", "OBJECT_ID": "1977-106A", "EPOCH": "2025-12-21T18:30:47.925792", "MEAN_MOTION": 13.48944897, "ECCENTRICITY": 0.0026245, "INCLINATION": 89.6478, "RA_OF_ASC_NODE": 78.2772, "ARG_OF_PERICENTER": 163.7104, "MEAN_ANOMALY": 307.1984, "EPHEMERIS_TYPE": 0, "CLASSIFICATION_TYPE": "U", "NORAD_CAT_ID": 10457, "ELEMENT_SET_NO": 999, "REV_AT_EPOCH": 36865, "BSTAR": 0.0001271, "MEAN_MOTION_DOT": 9e-07, "MEAN_MOTION_DDOT": 0}, "tle": {"line1": "1 10457U 77106A   25355.77138803  .00000090  00000+0  12710-3 0  9997", "line2": "2 10457  89.6478  78.2772 0026245 163.7104 307.1984 13.48944897368652"}}, "geometry": {"type": "Point", "coordinates": [-101.07409027314624, -61.99992878312275]}}, {"type": "Feature", "properties": {"norad_id": 12458, "name": "NOVA 1", "group": "nnss", "lat": -7.165312904243695, "lon": 91.23340341597383, "alt_km": 1175.53364045347, "timestamp": "2025-12-22T04:03:39.437667+00:00", "meta": {"OBJECT_NAME": "NOVA 1", "OBJECT_ID": "1981-044A", "EPOCH": "2025-12-21T17:47:03.721056", "MEAN_MOTION": 13.23279405, "ECCENTRICITY": 0.0015829, "INCLINATION": 89.8527, "RA_OF_ASC_NODE": 91.258, "ARG_OF_PERICENTER": 81.8787, "MEAN_ANOMALY": 32.6129, "EPHEMERIS_TYPE": 0, "CLASSIFICATION_TYPE": "U", "NORAD_CAT_ID": 12458, "ELEMENT_SET_NO": 999, "REV_AT_EPOCH": 15305, "BSTAR": 0.00011924, "MEAN_MOTION_DOT": 6e-07, "MEAN_MOTION_DDOT": 0}, "tle": {"line1": "1 12458U 81044A   25355.74101529  .00000060  00000+0  11924-3 0  9991", "line2": "2 12458  89.8527  91.2580 0015829  81.8787  32.6129 13.23279405153053"}}, "geometry": {"type": "Point", "coordinates": [91.23340341597383, -7.165312904243695]}}, {"type": "Feature", "properties": {"norad_id": 15362, "name": "NOVA 3", "group": "nnss", "lat": -37.636104047503885, "lon": -99.44845403271569, "alt_km": 1178.3821618352322, "timestamp": "2025-12-22T04:03:39.437678+00:00", "meta": {"OBJECT_NAME": "NOVA 3", "OBJECT_ID": "1984-110A", "EPOCH": "2025-12-21T18:29:46.288032", "MEAN_MOTION": 13.23045627, "ECCENTRICITY": 0.0029975, "INCLINATION": 90.122, "RA_OF_ASC_NODE": 80.641, "ARG_OF_PERICENTER": 305.9628, "MEAN_ANOMALY": 174.8273, "EPHEMERIS_TYPE": 0, "CLASSIFICATION_TYPE": "U", "NORAD_CAT_ID": 15362, "ELEMENT_SET_NO": 999, "REV_AT_EPOCH": 98818, "BSTAR": 0.00018712, "MEAN_MOTION_DOT": 8.7e-07, "MEAN_MOTION_DDOT": 0}, "tle": {"line1": "1 15362U 84110A   25355.77067463  .00000087  00000+0  18712-3 0  9997", "line2": "2 15362  90.1220  80.6410 0029975 305.9628 174.8273 13.23045627988186"}}, "geometry": {"type": "Point", "coordinates": [-99.44845403271569, -37.636104047503885]}}, {"type": "Feature", "properties": {"norad_id": 15935, "name": "OSCAR 30", "group": "nnss", "lat": 19.20009022352185, "lon": 99.943629479714, "alt_km": 1023.6209164537731, "timestamp": "2025-12-22T04:03:39.437688+00:00", "meta": {"OBJECT_NAME": "OSCAR 30", "OBJECT_ID": "1985-066A", "EPOCH": "2025-12-21T17:45:15.162048", "MEAN_MOTION": 13.36079647, "ECCENTRICITY": 0.0169107, "INCLINATION": 90.1655, "RA_OF_ASC_NODE": 99.9943, "ARG_OF_PERICENTER": 58.7725, "MEAN_ANOMALY": 57.3386, "EPHEMERIS_TYPE": 0, "CLASSIFICATION_TYPE": "U", "NORAD_CAT_ID": 15935, "ELEMENT_SET_NO": 999, "REV_AT_EPOCH": 96573, "BSTAR": 0.00015426, "MEAN_MOTION_DOT": 9.6e-07, "MEAN_MOTION_DDOT": 0}, "tle": {"line1": "1 15935U 85066A   25355.73975882  .00000096  00000+0  15426-3 0  9992", "line2": "2 15935  90.1655  99.9943 0169107  58.7725  57.3386 13.36079647965730"}}, "geometry": {"type": "Point", "coordinates": [99.943629479714, 19.20009022352185]}}, {"type": "Feature", "properties": {"norad_id": 15936, "name": "OSCAR 24", "group": "nnss", "lat": 88.08537875347176, "lon": -82.15912435681467, "alt_km": 1003.619414087766, "timestamp": "2025-12-22T04:03:39.437699+00:00", "meta": {"OBJECT_NAME": "OSCAR 24", "OBJECT_ID": "1985-066B", "EPOCH": "2025-12-21T19:11:23.331840", "MEAN_MOTION": 13.35936983, "ECCENTRICITY": 0.0170232, "INCLINATION": 90.1791, "RA_OF_ASC_NODE": 92.4657, "ARG_OF_PERICENTER": 65.0417, "MEAN_ANOMALY": 49.3088, "EPHEMERIS_TYPE": 0, "CLASSIFICATION_TYPE": "U", "NORAD_CAT_ID": 15936, "ELEMENT_SET_NO": 999, "REV_AT_EPOCH": 96764, "BSTAR": 0.00013931, "MEAN_MOTION_DOT": 8.7e-07, "MEAN_MOTION_DDOT": 0}, "tle": {"line1": "1 15936U 85066B   25355.79957560  .00000087  00000+0  13931-3 0  9991", "line2": "2 15936  90.1791  92.4657 0170232  65.0417  49.3088 13.35936983967648"}}, "geometry": {"type": "Point", "coordinates": [-82.15912435681467, 88.08537875347176]}}]}